{
  "type": "FeatureCollection",
  "features": [
    {
      "type": "Feature",
      "properties": {
        "norad_id": 66586,
        "name": "TJS-21",
        "group": "last-30-days",
        "lat": 48.17276130819593,
        "lon": -162.96018177927883,
        "alt_km": 26731.419260788698,
        "timestamp": "2025-12-08T19:31:47.636976+00:00",
        "meta_object_name": "TJS-21",
        "meta_object_id": "2025-269A",
        "meta_epoch": "2025-12-06T17:47:41.602272",
        "meta_mean_motion": 2.00560491,
        "meta_eccentricity": 0.68052367,
        "meta_inclination": 63.2668,
        "meta_ra_of_asc_node": 162.9832,
        "meta_arg_of_pericenter": 269.7989,
        "meta_mean_anomaly": 18.6583,
        "meta_ephemeris_type": 0,
        "meta_classification_type": "U",
        "meta_norad_cat_id": 66586,
        "meta_element_set_no": 999,
        "meta_rev_at_epoch": 32,
        "meta_bstar": -0.014744059,
        "meta_mean_motion_dot": 1.105e-05,
        "meta_mean_motion_ddot": 0,
        "tle_line1": "1 66586U 25269A   25340.74145373  .00001105  00000+0 -14744-1 0  9991",
        "tle_line2": "2 66586  63.2668 162.9832 6805236 269.7989  18.6583  2.00560491   328"
      },
      "geometry": {
        "type": "Point",
        "coordinates": [
          -162.96018177927883,
          48.17276130819593
        ]
      }
    },
    {
      "type": "Feature",
      "properties": {
        "norad_id": 66587,
        "name": "CZ-3B R/B",
        "group": "last-30-days",
        "lat": -26.416933004259036,
        "lon": 146.99780695583289,
        "alt_km": 6275.904592206013,
        "timestamp": "2025-12-08T19:31:47.636988+00:00",
        "meta_object_name": "CZ-3B R/B",
        "meta_object_id": "2025-269B",
        "meta_epoch": "2025-12-07T20:37:07.541184",
        "meta_mean_motion": 2.0277528,
        "meta_eccentricity": 0.75198553,
        "meta_inclination": 51.3496,
        "meta_ra_of_asc_node": 170.7741,
        "meta_arg_of_pericenter": 227.8456,
        "meta_mean_anomaly": 38.1634,
        "meta_ephemeris_type": 0,
        "meta_classification_type": "U",
        "meta_norad_cat_id": 66587,
        "meta_element_set_no": 999,
        "meta_rev_at_epoch": 35,
        "meta_bstar": 0.0013712139,
        "meta_mean_motion_dot": 0.00050942,
        "meta_mean_motion_ddot": -4.9325e-08,
        "tle_line1": "1 66587U 25269B   25341.85911506  .00050942 -49325-7  13712-2 0  9993",
        "tle_line2": "2 66587  51.3496 170.7741 7519855 227.8456  38.1634  2.02775280   359"
      },
      "geometry": {
        "type": "Point",
        "coordinates": [
          146.99780695583289,
          -26.416933004259036
        ]
      }
    },
    {
      "type": "Feature",
      "properties": {
        "norad_id": 66588,
        "name": "STARLINK-36076",
        "group": "last-30-days",
        "lat": 11.740771149940363,
        "lon": -131.3463399452258,
        "alt_km": 389.12018234060906,
        "timestamp": "2025-12-08T19:31:47.637000+00:00",
        "meta_object_name": "STARLINK-36076",
        "meta_object_id": "2025-270A",
        "meta_epoch": "2025-12-08T06:00:02.999808",
        "meta_mean_motion": 15.61398881,
        "meta_eccentricity": 0.00015388,
        "meta_inclination": 42.999,
        "meta_ra_of_asc_node": 219.1116,
        "meta_arg_of_pericenter": 276.4429,
        "meta_mean_anomaly": 171.0351,
        "meta_ephemeris_type": 0,
        "meta_classification_type": "U",
        "meta_norad_cat_id": 66588,
        "meta_element_set_no": 999,
        "meta_rev_at_epoch": 367,
        "meta_bstar": -0.025963777,
        "meta_mean_motion_dot": -0.01999435,
        "meta_mean_motion_ddot": 0,
        "tle_line1": "1 66588U 25270A   25342.25003472 -.01999435  00000+0 -25964-1 0  9996",
        "tle_line2": "2 66588  42.9990 219.1116 0001538 276.4429 171.0351 15.61398881  3674"
      },
      "geometry": {
        "type": "Point",
        "coordinates": [
          -131.3463399452258,
          11.740771149940363
        ]
      }
    },
    {
      "type": "Feature",
      "properties": {
        "norad_id": 66589,
        "name": "STARLINK-35447",
        "group": "last-30-days",
        "lat": 14.27434915645063,
        "lon": -128.3985655332899,
        "alt_km": 388.8443411876724,
        "timestamp": "2025-12-08T19:31:47.637009+00:00",
        "meta_object_name": "STARLINK-35447",
        "meta_object_id": "2025-270B",
        "meta_epoch": "2025-12-08T06:00:02.999808",
        "meta_mean_motion": 15.61397354,
        "meta_eccentricity": 0.00015026,
        "meta_inclination": 42.9989,
        "meta_ra_of_asc_node": 219.1019,
        "meta_arg_of_pericenter": 275.3942,
        "meta_mean_anomaly": 175.9195,
        "meta_ephemeris_type": 0,
        "meta_classification_type": "U",
        "meta_norad_cat_id": 66589,
        "meta_element_set_no": 999,
        "meta_rev_at_epoch": 378,
        "meta_bstar": -0.025936618,
        "meta_mean_motion_dot": -0.0199747,
        "meta_mean_motion_ddot": 0,
        "tle_line1": "1 66589U 25270B   25342.25003472 -.01997470  00000+0 -25937-1 0  9994",
        "tle_line2": "2 66589  42.9989 219.1019 0001502 275.3942 175.9195 15.61397354  3789"
      },
      "geometry": {
        "type": "Point",
        "coordinates": [
          -128.3985655332899,
          14.27434915645063
        ]
      }
    },
    {
      "type": "Feature",
      "properties": {
        "norad_id": 66590,
        "name": "STARLINK-35429",
        "group": "last-30-days",
        "lat": 13.011994800726418,
        "lon": -129.8797473768893,
        "alt_km": 388.9907878005479,
        "timestamp": "2025-12-08T19:31:47.637018+00:00",
        "meta_object_name": "STARLINK-35429",
        "meta_object_id": "2025-270C",
        "meta_epoch": "2025-12-08T06:00:02.999808",
        "meta_mean_motion": 15.61397563,
        "meta_eccentricity": 0.00015011,
        "meta_inclination": 42.9989,
        "meta_ra_of_asc_node": 219.1067,
        "meta_arg_of_pericenter": 275.5339,
        "meta_mean_anomaly": 173.8627,
        "meta_ephemeris_type": 0,
        "meta_classification_type": "U",
        "meta_norad_cat_id": 66590,
        "meta_element_set_no": 999,
        "meta_rev_at_epoch": 378,
        "meta_bstar": -0.025939748,
        "meta_mean_motion_dot": -0.01997695,
        "meta_mean_motion_ddot": 0,
        "tle_line1": "1 66590U 25270C   25342.25003472 -.01997695  00000+0 -25940-1 0  9999",
        "tle_line2": "2 66590  42.9989 219.1067 0001501 275.5339 173.8627 15.61397563  3784"
      },
      "geometry": {
        "type": "Point",
        "coordinates": [
          -129.8797473768893,
          13.011994800726418
        ]
      }
    },
    {
      "type": "Feature",
      "properties": {
        "norad_id": 66591,
        "name": "STARLINK-36058",
        "group": "last-30-days",
        "lat": 15.527848285712484,
        "lon": -126.90024185910183,
        "alt_km": 388.68003907587536,
        "timestamp": "2025-12-08T19:31:47.637028+00:00",
        "meta_object_name": "STARLINK-36058",
        "meta_object_id": "2025-270D",
        "meta_epoch": "2025-12-08T06:00:02.999808",
        "meta_mean_motion": 15.6139789,
        "meta_eccentricity": 0.0001546,
        "meta_inclination": 42.9989,
        "meta_ra_of_asc_node": 219.097,
        "meta_arg_of_pericenter": 276.0496,
        "meta_mean_anomaly": 177.1799,
        "meta_ephemeris_type": 0,
        "meta_classification_type": "U",
        "meta_norad_cat_id": 66591,
        "meta_element_set_no": 999,
        "meta_rev_at_epoch": 367,
        "meta_bstar": -0.025934874,
        "meta_mean_motion_dot": -0.01997422,
        "meta_mean_motion_ddot": 0,
        "tle_line1": "1 66591U 25270D   25342.25003472 -.01997422  00000+0 -25935-1 0  9992",
        "tle_line2": "2 66591  42.9989 219.0970 0001546 276.0496 177.1799 15.61397890  3674"
      },
      "geometry": {
        "type": "Point",
        "coordinates": [
          -126.90024185910183,
          15.527848285712484
        ]
      }
    },
    {
      "type": "Feature",
      "properties": {
        "norad_id": 66592,
        "name": "STARLINK-36066",
        "group": "last-30-days",
        "lat": 16.770269502224377,
        "lon": -125.38436795228202,
        "alt_km": 388.498997893098,
        "timestamp": "2025-12-08T19:31:47.637038+00:00",
        "meta_object_name": "STARLINK-36066",
        "meta_object_id": "2025-270E",
        "meta_epoch": "2025-12-08T06:00:02.999808",
        "meta_mean_motion": 15.61397534,
        "meta_eccentricity": 0.00014463,
        "meta_inclination": 42.9989,
        "meta_ra_of_asc_node": 219.0923,
        "meta_arg_of_pericenter": 276.6312,
        "meta_mean_anomaly": 178.5167,
        "meta_ephemeris_type": 0,
        "meta_classification_type": "U",
        "meta_norad_cat_id": 66592,
        "meta_element_set_no": 999,
        "meta_rev_at_epoch": 358,
        "meta_bstar": -0.025937885,
        "meta_mean_motion_dot": -0.01997526,
        "meta_mean_motion_ddot": 0,
        "tle_line1": "1 66592U 25270E   25342.25003472 -.01997526  00000+0 -25938-1 0  9991",
        "tle_line2": "2 66592  42.9989 219.0923 0001446 276.6312 178.5167 15.61397534  3584"
      },
      "geometry": {
        "type": "Point",
        "coordinates": [
          -125.38436795228202,
          16.770269502224377
        ]
      }
    }
  ]
}